OBJECT_NAME,OBJECT_ID,EPOCH,MEAN_MOTION,ECCENTRICITY,INCLINATION,RA_OF_ASC_NODE,ARG_OF_PERICENTER,MEAN_ANOMALY,EPHEMERIS_TYPE,CLASSIFICATION_TYPE,NORAD_CAT_ID,ELEMENT_SET_NO,REV_AT_EPOCH,BSTAR,MEAN_MOTION_DOT,MEAN_MOTION_DDOT
STARLINK-2598,2021-038AJ,2024-07-07T09:19:27.189696,15.06392049,.0001299,53.0541,211.3658,90.0553,270.0585,0,U,48385,999,17640,.10484E-4,-.125E-5,0
STARLINK-2606,2021-038AK,2024-07-07T07:26:00.242592,15.06394514,.0001174,53.0542,206.7302,76.4475,283.6644,0,U,48386,999,17523,-.17022E-4,-.535E-5,0
STARLINK-2600,2021-038AL,2024-07-08T04:50:28.119840,15.06414390,.0001336,53.0531,202.6816,86.7671,273.3470,0,U,48387,999,17596,.18324E-3,.245E-4,0
STARLINK-2594,2021-038AM,2024-07-07T08:03:08.781120,15.06396612,.0001308,53.0537,206.6024,89.5785,270.5354,0,U,48388,999,17524,-.2149E-4,-.601E-5,0
STARLINK-1904,2021-038AN,2024-07-07T08:26:02.257728,15.18704510,.000101,53.0532,200.4349,82.5017,277.6092,0,U,48389,999,17532,-.26879E-4,-.883E-5,0
STARLINK-2586,2021-038AP,2024-07-07T07:39:56.011392,15.06391214,.000117,53.0531,201.6743,85.9036,274.2087,0,U,48390,999,17652,-.59324E-4,-.1165E-4,0
STARLINK-2607,2021-038AQ,2024-07-08T04:16:37.715520,15.06399252,.0000935,53.0533,197.8177,80.9758,279.1337,0,U,48391,999,17601,-.50467E-4,-.1033E-4,0
STARLINK-2605,2021-038AR,2024-07-07T10:40:24.093984,15.06406029,.0001182,53.0515,201.1110,97.9198,262.1925,0,U,48392,999,17654,.48313E-4,.438E-5,0
STARLINK-2602,2021-038AS,2024-07-07T10:35:05.311680,15.06394002,.0001433,53.0555,201.1266,101.4478,258.6672,0,U,48393,999,17654,-.46183E-4,-.969E-5,0
STARLINK-2573,2021-038AT,2024-07-07T07:18:41.735808,15.06394094,.0000964,53.0527,201.7448,83.1206,276.9893,0,U,48394,999,17652,-.49086E-4,-.1012E-4,0
STARLINK-2574,2021-038AU,2024-07-07T09:58:02.649216,15.06389507,.0001047,53.0547,201.8744,92.1055,268.0054,0,U,48395,999,17653,-.40188E-5,-.341E-5,0
STARLINK-2575,2021-038AV,2024-07-08T03:55:22.250208,15.06414448,.000092,53.0533,197.8849,71.1558,288.9531,0,U,48396,999,17602,.76987E-4,.866E-5,0
STARLINK-2590,2021-038AW,2024-07-07T10:19:10.081920,15.06393198,.0001274,53.0538,201.1783,83.7704,276.3430,0,U,48397,999,17654,-.12459E-4,-.467E-5,0
STARLINK-2588,2021-038AX,2024-07-08T05:20:19.484736,15.06398469,.0001258,53.0537,197.6207,75.9968,284.1161,0,U,48398,999,17603,.11544E-5,-.264E-5,0
STARLINK-2587,2021-038AY,2024-07-07T10:08:32.805888,15.06395212,.0001348,53.0531,201.2128,96.6287,263.4856,0,U,48399,999,17591,.12602E-3,.1596E-4,0
STARLINK-2576,2021-038AZ,2024-07-07T10:03:14.471136,15.06389513,.0001215,53.0542,201.2309,88.2951,271.8177,0,U,48400,999,17532,-.25805E-5,-.32E-5,0
STARLINK-2571,2021-038BA,2024-07-07T10:56:19.439520,15.06392121,.0001286,53.0544,201.0738,85.5917,274.5219,0,U,48401,999,17532,-.36932E-4,-.831E-5,0
STARLINK-2560,2021-038BB,2024-07-07T07:18:52.611840,15.69708007,.0001372,53.0526,150.6361,79.6053,280.5118,0,U,48402,999,17660,-.30719E-5,-.962E-5,0
STARLINK-2561,2021-038BC,2024-07-07T08:17:06.688320,15.06375695,.0001014,53.0539,201.5562,93.7626,266.3478,0,U,48403,999,17531,.45117E-4,.39E-5,0
STARLINK-2593,2021-038BD,2024-07-08T04:53:47.512032,15.06394044,.0001146,53.0549,197.7095,105.3827,254.7289,0,U,48404,999,17603,-.24033E-4,-.639E-5,0
STARLINK-2570,2021-038BE,2024-07-07T08:06:28.258848,15.06393212,.0001414,53.0544,201.5958,83.5188,276.5962,0,U,48405,999,17531,-.84608E-5,-.407E-5,0
STARLINK-2568,2021-038BF,2024-07-08T04:43:10.897824,15.06392830,.0001319,53.0550,197.7401,85.3143,274.7997,0,U,48406,999,17603,-.31199E-5,-.328E-5,0
STARLINK-2595,2021-038BG,2024-07-07T10:44:01.637952,15.06984879,.0001309,53.0538,200.2513,90.5635,269.5504,0,U,48407,999,17533,-.84375E-5,-.411E-5,0
STARLINK-2592,2021-038BH,2024-07-07T07:50:32.935776,15.06392146,.0001248,53.0553,201.6443,91.0437,269.0694,0,U,48408,999,17530,-.85171E-4,-.1549E-4,0
STARLINK-2596,2021-038BJ,2024-07-07T08:35:54.235968,15.43691725,.0001288,53.0546,201.6593,84.2049,275.9103,0,U,48409,999,17532,.31569E-4,.1028E-4,0
STARLINK-2563,2021-038BK,2024-07-07T21:15:20.363904,15.06394593,.000142,53.0551,154.1329,88.5094,271.6057,0,U,48410,999,17661,-.11414E-5,-.298E-5,0
STARLINK-2505,2021-038BL,2024-07-08T04:02:01.758624,15.06405063,.000137,53.0537,147.8667,91.1340,268.9806,0,U,48411,999,17672,.1723E-4,-.25E-6,0
STARLINK-2581,2021-038BM,2024-07-08T04:28:39.054432,15.06404461,.0001337,53.0545,148.2165,92.3420,267.7722,0,U,48412,999,17672,.10607E-4,-.123E-5,0
YAOGAN-30 09A,2021-039A,2024-07-07T22:08:49.668576,14.95496517,.0005535,34.9989,14.7119,2.3222,357.7509,0,U,48423,999,17301,.32769E-3,.3673E-4,0
YAOGAN-30 09B,2021-039B,2024-07-07T21:37:13.414944,14.95468002,.0004353,34.9970,14.3820,107.7986,252.3195,0,U,48424,999,17301,.34295E-3,.3843E-4,0
YAOGAN-30 09C,2021-039C,2024-07-07T22:40:30.681984,14.95468793,.0003422,34.9968,13.7894,22.3466,337.7388,0,U,48425,999,17303,.32638E-3,.3655E-4,0
TIANQI-12,2021-039D,2024-07-07T21:28:40.479744,14.99087140,.000394,35.0043,353.4941,163.9701,196.1132,0,U,48426,999,17322,.48598E-3,.5996E-4,0
STARLINK-2461,2021-040A,2024-07-07T20:42:10.120896,15.06410728,.000137,53.0545,44.2354,84.3412,275.7733,0,U,48428,999,17592,.69455E-3,.10082E-3,0
STARLINK-2749,2021-040B,2024-07-07T12:00:41.049504,15.06400307,.0001394,53.0547,15.8734,90.7740,269.3409,0,U,48429,999,17628,.14687E-3,.1907E-4,0
STARLINK-2700,2021-040D,2024-07-07T21:04:01.412832,15.06408787,.0001459,53.0556,9.1714,88.6593,271.4563,0,U,48431,999,17558,.67057E-3,.9723E-4,0
STARLINK-2680,2021-040E,2024-07-07T11:03:41.125824,15.06409805,.0001353,53.0562,6.4344,85.4082,274.7061,0,U,48432,999,17513,.46198E-3,.6608E-4,0
STARLINK-2699,2021-040F,2024-07-07T17:43:44.031648,15.06414131,.000127,53.0554,10.0722,94.5755,265.5379,0,U,48433,999,17571,.56748E-3,.8184E-4,0
STARLINK-2692,2021-040G,2024-07-07T20:03:46.920672,15.06402426,.0001393,53.0562,14.8664,86.9577,273.1572,0,U,48434,999,17550,.34636E-3,.4882E-4,0
STARLINK-2633,2021-040H,2024-07-07T18:37:26.142528,15.06402723,.0001334,53.0547,24.6344,94.8435,265.2706,0,U,48435,999,17618,.2329E-3,.319E-4,0
STARLINK-2639,2021-040J,2024-07-07T21:33:14.410944,15.06379358,.0001316,53.0543,39.0762,99.6326,260.4812,0,U,48436,999,17516,.75167E-3,.10926E-3,0
STARLINK-2642,2021-040K,2024-07-07T08:26:23.248608,15.06399361,.0001439,53.0545,51.5292,87.7664,272.3490,0,U,48437,999,17449,.21208E-3,.2879E-4,0
STARLINK-2640,2021-040L,2024-07-07T20:29:36.222144,15.06411730,.0001491,53.0551,39.5423,94.5080,265.6079,0,U,48438,999,17598,.2461E-3,.3387E-4,0
STARLINK-2583,2021-040M,2024-07-07T19:47:06.317088,15.06391378,.0001556,53.0550,39.4084,93.9459,266.1707,0,U,48439,999,17598,.78323E-3,.11401E-3,0
STARLINK-2682,2021-040N,2024-07-07T19:41:47.527008,15.06403921,.0001041,53.0547,39.4255,96.6344,263.4763,0,U,48440,999,17515,.75712E-3,.11015E-3,0
STARLINK-2702,2021-040P,2024-07-07T06:52:10.286688,15.06392944,.000131,53.0549,41.8231,86.7020,273.4119,0,U,48441,999,17462,.26602E-3,.3682E-4,0
STARLINK-2644,2021-040Q,2024-07-07T19:31:10.492032,15.06399483,.0001322,53.0557,39.4611,86.4323,273.6818,0,U,48442,999,17598,.3709E-3,.5247E-4,0
STARLINK-2663,2021-040R,2024-07-07T00:19:23.813184,15.06393041,.0001434,53.0549,43.0490,80.7608,279.3544,0,U,48443,999,17458,.15269E-3,.1993E-4,0
STARLINK-2645,2021-040S,2024-07-07T20:56:05.608896,15.06409083,.0001508,53.0556,39.1957,94.7790,265.3372,0,U,48444,999,17599,.56287E-3,.8114E-4,0
STARLINK-2634,2021-040T,2024-07-06T20:57:42.216192,15.06396012,.0001765,53.0546,43.6774,91.8829,268.2362,0,U,48445,999,17584,.13017E-3,.1658E-4,0
STARLINK-2247,2021-040U,2024-07-07T20:45:29.562336,15.06419818,.0001477,53.0549,39.2306,81.4557,278.6599,0,U,48446,999,17599,.13065E-2,.19243E-3,0
STARLINK-2632,2021-040W,2024-07-07T22:00:00.999936,15.76976663,.0007015,53.0495,346.7156,312.2425,316.4484,0,U,48448,999,17671,.13822E-2,.234763E-2,0
STARLINK-2655,2021-040X,2024-07-07T20:34:52.356288,15.06411843,.0001362,53.0548,39.2579,88.3590,271.7555,0,U,48449,999,17599,.66363E-3,.962E-4,0
STARLINK-2660,2021-040Y,2024-07-07T20:33:30.821472,15.06410234,.0001523,53.0548,39.2902,79.7822,280.3339,0,U,48450,999,17599,.66744E-3,.9677E-4,0
STARLINK-2652,2021-040Z,2024-07-08T02:00:01.000224,15.74322269,.0004929,53.0498,346.1139,319.9578,258.3711,0,U,48451,999,17675,.78071E-3,.116037E-2,0
STARLINK-2703,2021-040AA,2024-07-07T20:24:15.176160,15.06406723,.0001448,53.0537,39.2624,88.3833,271.7322,0,U,48452,999,17599,.28094E-3,.3906E-4,0
STARLINK-2620,2021-040AB,2024-07-07T07:34:38.272800,15.06396498,.0001833,53.0563,41.6906,84.3115,275.8083,0,U,48453,999,17463,.45232E-3,.6461E-4,0
STARLINK-2654,2021-040AC,2024-07-07T20:13:38.533440,15.06401653,.0001316,53.0543,39.3244,90.6588,269.4551,0,U,48454,999,17599,.71092E-3,.10324E-3,0
STARLINK-2497,2021-040AD,2024-07-07T21:43:52.376448,15.06406345,.0001554,53.0555,39.0436,89.3578,270.7589,0,U,48455,999,17532,.28009E-3,.3894E-4,0
STARLINK-2508,2021-040AE,2024-07-08T02:00:01.000224,15.77162149,.0006625,53.0492,340.2289,319.4015,60.0848,0,U,48456,999,17616,.91675E-3,.155299E-2,0
STARLINK-2698,2021-040AG,2024-07-07T07:36:37.217952,15.06405390,.0001266,53.0542,46.7721,100.5698,259.5433,0,U,48458,999,17527,.28232E-3,.3927E-4,0
STARLINK-2579,2021-040AH,2024-07-07T21:45:55.515456,15.06403355,.0001557,53.0548,44.3945,83.8726,276.2440,0,U,48459,999,17525,.77232E-3,.11242E-3,0
STARLINK-2582,2021-040AJ,2024-07-07T20:36:51.924384,15.06409275,.0001558,53.0546,44.2551,82.6778,277.4388,0,U,48460,999,17514,.71861E-3,.10441E-3,0
STARLINK-2693,2021-040AK,2024-07-07T20:58:05.304000,15.06410373,.0001485,53.0556,44.1851,87.3023,272.8136,0,U,48461,999,17592,.64248E-3,.9304E-4,0
STARLINK-2683,2021-040AL,2024-07-07T18:58:03.278208,15.06401264,.0001544,53.0566,49.8434,95.4077,264.7088,0,U,48462,999,17516,.78042E-3,.11362E-3,0
STARLINK-2689,2021-040AM,2024-07-07T20:42:48.565440,15.06401895,.0001695,53.0559,49.2323,86.2816,273.8366,0,U,48463,999,17585,.66895E-3,.9697E-4,0
STARLINK-2686,2021-040AN,2024-07-07T01:05:50.703936,15.06395639,.0001357,53.0551,52.9040,87.1124,273.0020,0,U,48464,999,17445,.14392E-3,.1863E-4,0
